{"type": "FeatureCollection", "features": [ {"type": "Feature", "properties": {"norad_id": 35593, "name": "COSMOS 2251 DEB", "group": "cosmos-2251-debris", "lat": 37.567985295601204, "lon": 99.28493638324917, "alt_km": 873.458782323748, "timestamp": "2025-12-10T18:57:00.461352+00:00", "meta": {"OBJECT_NAME": "COSMOS 2251 DEB", "OBJECT_ID": "1993-036AML", "EPOCH": "2025-12-10T06:29:48.049728", "MEAN_MOTION": 14.25579692, "ECCENTRICITY": 0.0105128, "INCLINATION": 74.0864, "RA_OF_ASC_NODE": 292.8954, "ARG_OF_PERICENTER": 299.8336, "MEAN_ANOMALY": 59.2392, "EPHEMERIS_TYPE": 0, "CLASSIFICATION_TYPE": "U", "NORAD_CAT_ID": 35593, "ELEMENT_SET_NO": 999, "REV_AT_EPOCH": 85030, "BSTAR": 0.0018188, "MEAN_MOTION_DOT": 4.538e-05, "MEAN_MOTION_DDOT": 0}, "tle": {"line1": "1 35593U 93036AML 25344.27069502  .00004538  00000+0  18188-2 0  9992", "line2": "2 35593  74.0864 292.8954 0105128 299.8336  59.2392 14.25579692850308"}}, "geometry": {"type": "Point", "coordinates": [99.28493638324917, 37.567985295601204]}}, {"type": "Feature", "properties": {"norad_id": 35594, "name": "COSMOS 2251 DEB", "group": "cosmos-2251-debris", "lat": 6.614443551627674, "lon": 112.41396430233233, "alt_km": 624.0400680233925, "timestamp": "2025-12-10T18:57:00.461362+00:00", "meta": {"OBJECT_NAME": "COSMOS 2251 DEB", "OBJECT_ID": "1993-036AMM", "EPOCH": "2025-12-09T02:34:25.968000", "MEAN_MOTION": 14.87749225, "ECCENTRICITY": 0.00305448, "INCLINATION": 73.8074, "RA_OF_ASC_NODE": 113.8828, "ARG_OF_PERICENTER": 225.3103, "MEAN_ANOMALY": 134.5588, "EPHEMERIS_TYPE": 0, "CLASSIFICATION_TYPE": "U", "NORAD_CAT_ID": 35594, "ELEMENT_SET_NO": 999, "REV_AT_EPOCH": 88131, "BSTAR": 0.0022507147, "MEAN_MOTION_DOT": 0.00020735, "MEAN_MOTION_DDOT": 0}, "tle": {"line1": "1 35594U 93036AMM 25343.10724500  .00020735  00000+0  22507-2 0  9997", "line2": "2 35594  73.8074 113.8828 0030544 225.3103 134.5588 14.87749225881314"}}, "geometry": {"type": "Point", "coordinates": [112.41396430233233, 6.614443551627674]}}, {"type": "Feature", "properties": {"norad_id": 35602, "name": "COSMOS 2251 DEB", "group": "cosmos-2251-debris", "lat": 32.69231329456735, "lon": -4.210269333953479, "alt_km": 476.16033873895594, "timestamp": "2025-12-10T18:57:00.461371+00:00", "meta": {"OBJECT_NAME": "COSMOS 2251 DEB", "OBJECT_ID": "1993-036AMV", "EPOCH": "2025-12-10T08:07:43.839840", "MEAN_MOTION": 15.34944429, "ECCENTRICITY": 0.0090167, "INCLINATION": 73.9939, "RA_OF_ASC_NODE": 187.3755, "ARG_OF_PERICENTER": 253.6862, "MEAN_ANOMALY": 282.5837, "EPHEMERIS_TYPE": 0, "CLASSIFICATION_TYPE": "U", "NORAD_CAT_ID": 35602, "ELEMENT_SET_NO": 999, "REV_AT_EPOCH": 90054, "BSTAR": 0.00063758, "MEAN_MOTION_DOT": 0.00024737, "MEAN_MOTION_DDOT": 0}, "tle": {"line1": "1 35602U 93036AMV 25344.33870185  .00024737  00000+0  63758-3 0  9994", "line2": "2 35602  73.9939 187.3755 0090167 253.6862 282.5837 15.34944429900547"}}, "geometry": {"type": "Point", "coordinates": [-4.210269333953479, 32.69231329456735]}}, {"type": "Feature", "properties": {"norad_id": 35605, "name": "COSMOS 2251 DEB", "group": "cosmos-2251-debris", "lat": -22.87177176198305, "lon": 167.8495326303153, "alt_km": 466.84011284555345, "timestamp": "2025-12-10T18:57:00.461381+00:00", "meta": {"OBJECT_NAME": "COSMOS 2251 DEB", "OBJECT_ID": "1993-036AMY", "EPOCH": "2025-12-08T17:29:07.135584", "MEAN_MOTION": 15.31836492, "ECCENTRICITY": 0.00282066, "INCLINATION": 73.8723, "RA_OF_ASC_NODE": 345.2823, "ARG_OF_PERICENTER": 280.9051, "MEAN_ANOMALY": 78.8978, "EPHEMERIS_TYPE": 0, "CLASSIFICATION_TYPE": "U", "NORAD_CAT_ID": 35605, "ELEMENT_SET_NO": 999, "REV_AT_EPOCH": 65910, "BSTAR": 0.0070125726, "MEAN_MOTION_DOT": 0.002247, "MEAN_MOTION_DDOT": 0}, "tle": {"line1": "1 35605U 93036AMY 25342.72855481  .00224700  00000+0  70126-2 0  9998", "line2": "2 35605  73.8723 345.2823 0028206 280.9051  78.8978 15.31836492659101"}}, "geometry": {"type": "Point", "coordinates": [167.8495326303153, -22.87177176198305]}}, {"type": "Feature", "properties": {"norad_id": 35606, "name": "COSMOS 2251 DEB", "group": "cosmos-2251-debris", "lat": 33.09820155887112, "lon": -177.00889065559687, "alt_km": 997.184066991229, "timestamp": "2025-12-10T18:57:00.461391+00:00", "meta": {"OBJECT_NAME": "COSMOS 2251 DEB", "OBJECT_ID": "1993-036AMZ", "EPOCH": "2025-12-09T08:10:26.094720", "MEAN_MOTION": 13.41205491, "ECCENTRICITY": 0.04577322, "INCLINATION": 73.8107, "RA_OF_ASC_NODE": 16.2149, "ARG_OF_PERICENTER": 222.4362, "MEAN_ANOMALY": 134.0496, "EPHEMERIS_TYPE": 0, "CLASSIFICATION_TYPE": "U", "NORAD_CAT_ID": 35606, "ELEMENT_SET_NO": 999, "REV_AT_EPOCH": 60994, "BSTAR": 0.0014727579, "MEAN_MOTION_DOT": 1.492e-05, "MEAN_MOTION_DDOT": 0}, "tle": {"line1": "1 35606U 93036AMZ 25343.34057980  .00001492  00000+0  14728-2 0  9993", "line2": "2 35606  73.8107  16.2149 0457732 222.4362 134.0496 13.41205491609945"}}, "geometry": {"type": "Point", "coordinates": [-177.00889065559687, 33.09820155887112]}}, {"type": "Feature", "properties": {"norad_id": 35611, "name": "COSMOS 2251 DEB", "group": "cosmos-2251-debris", "lat": 65.85198272138575, "lon": -137.16561251192007, "alt_km": 660.8025761817835, "timestamp": "2025-12-10T18:57:00.461401+00:00", "meta": {"OBJECT_NAME": "COSMOS 2251 DEB", "OBJECT_ID": "1993-036ANE", "EPOCH": "2025-12-09T23:03:41.124096", "MEAN_MOTION": 14.727217, "ECCENTRICITY": 0.00218182, "INCLINATION": 74.0195, "RA_OF_ASC_NODE": 184.7172, "ARG_OF_PERICENTER": 258.0606, "MEAN_ANOMALY": 101.812, "EPHEMERIS_TYPE": 0, "CLASSIFICATION_TYPE": "U", "NORAD_CAT_ID": 35611, "ELEMENT_SET_NO": 999, "REV_AT_EPOCH": 87249, "BSTAR": 0.003128691, "MEAN_MOTION_DOT": 0.00020072, "MEAN_MOTION_DDOT": 0}, "tle": {"line1": "1 35611U 93036ANE 25343.96089264  .00020072  00000+0  31287-2 0  9991", "line2": "2 35611  74.0195 184.7172 0021818 258.0606 101.8120 14.72721700872495"}}, "geometry": {"type": "Point", "coordinates": [-137.16561251192007, 65.85198272138575]}}, {"type": "Feature", "properties": {"norad_id": 35614, "name": "COSMOS 2251 DEB", "group": "cosmos-2251-debris", "lat": -49.97141198464124, "lon": 171.2752477046018, "alt_km": 640.2282433541204, "timestamp": "2025-12-10T18:57:00.461411+00:00", "meta": {"OBJECT_NAME": "COSMOS 2251 DEB", "OBJECT_ID": "1993-036ANH", "EPOCH": "2025-12-10T08:04:29.113248", "MEAN_MOTION": 14.66977298, "ECCENTRICITY": 0.0075928, "INCLINATION": 73.9593, "RA_OF_ASC_NODE": 332.1225, "ARG_OF_PERICENTER": 187.1902, "MEAN_ANOMALY": 172.8186, "EPHEMERIS_TYPE": 0, "CLASSIFICATION_TYPE": "U", "NORAD_CAT_ID": 35614, "ELEMENT_SET_NO": 999, "REV_AT_EPOCH": 87694, "BSTAR": 0.0012622, "MEAN_MOTION_DOT": 7.356e-05, "MEAN_MOTION_DDOT": 0}, "tle": {"line1": "1 35614U 93036ANH 25344.33644807  .00007356  00000+0  12622-2 0  9998", "line2": "2 35614  73.9593 332.1225 0075928 187.1902 172.8186 14.66977298876940"}}, "geometry": {"type": "Point", "coordinates": [171.2752477046018, -49.97141198464124]}}, {"type": "Feature", "properties": {"norad_id": 35645, "name": "COSMOS 2251 DEB", "group": "cosmos-2251-debris", "lat": 70.20933215715793, "lon": -141.67429321865524, "alt_km": 774.8244724211982, "timestamp": "2025-12-10T18:57:00.461420+00:00", "meta": {"OBJECT_NAME": "COSMOS 2251 DEB", "OBJECT_ID": "1993-036ANL", "EPOCH": "2025-12-10T00:12:18.796896", "MEAN_MOTION": 14.45512802, "ECCENTRICITY": 0.00695477, "INCLINATION": 73.9645, "RA_OF_ASC_NODE": 92.847, "ARG_OF_PERICENTER": 250.9584, "MEAN_ANOMALY": 108.4031, "EPHEMERIS_TYPE": 0, "CLASSIFICATION_TYPE": "U", "NORAD_CAT_ID": 35645, "ELEMENT_SET_NO": 999, "REV_AT_EPOCH": 86732, "BSTAR": 0.0033862474, "MEAN_MOTION_DOT": 0.00012297, "MEAN_MOTION_DDOT": 0}, "tle": {"line1": "1 35645U 93036ANL 25344.00855089  .00012297  00000+0  33862-2 0  9991", "line2": "2 35645  73.9645  92.8470 0069547 250.9584 108.4031 14.45512802867328"}}, "geometry": {"type": "Point", "coordinates": [-141.67429321865524, 70.20933215715793]}}, {"type": "Feature", "properties": {"norad_id": 35646, "name": "COSMOS 2251 DEB", "group": "cosmos-2251-debris", "lat": 34.41010500871642, "lon": 70.55435422662504, "alt_km": 1330.6458654984463, "timestamp": "2025-12-10T18:57:00.461431+00:00", "meta": {"OBJECT_NAME": "COSMOS 2251 DEB", "OBJECT_ID": "1993-036ANM", "EPOCH": "2025-12-09T21:53:18.178080", "MEAN_MOTION": 13.40813356, "ECCENTRICITY": 0.04571798, "INCLINATION": 73.8723, "RA_OF_ASC_NODE": 60.5155, "ARG_OF_PERICENTER": 171.162, "MEAN_ANOMALY": 314.4058, "EPHEMERIS_TYPE": 0, "CLASSIFICATION_TYPE": "U", "NORAD_CAT_ID": 35646, "ELEMENT_SET_NO": 999, "REV_AT_EPOCH": 81820, "BSTAR": 0.0013446528, "MEAN_MOTION_DOT": 1.351e-05, "MEAN_MOTION_DDOT": 0}, "tle": {"line1": "1 35646U 93036ANM 25343.91201595  .00001351  00000+0  13447-2 0  9994", "line2": "2 35646  73.8723  60.5155 0457179 171.1620 314.4058 13.40813356818207"}}, "geometry": {"type": "Point", "coordinates": [70.55435422662504, 34.41010500871642]}}, {"type": "Feature", "properties": {"norad_id": 35647, "name": "COSMOS 2251 DEB", "group": "cosmos-2251-debris", "lat": -7.090426656158878, "lon": 120.23814063554447, "alt_km": 777.6961211347325, "timestamp": "2025-12-10T18:57:00.461441+00:00", "meta": {"OBJECT_NAME": "COSMOS 2251 DEB", "OBJECT_ID": "1993-036ANN", "EPOCH": "2025-12-06T04:19:05.390400", "MEAN_MOTION": 14.4357388, "ECCENTRICITY": 0.0045144, "INCLINATION": 74.0229, "RA_OF_ASC_NODE": 306.7667, "ARG_OF_PERICENTER": 47.5691, "MEAN_ANOMALY": 312.927, "EPHEMERIS_TYPE": 0, "CLASSIFICATION_TYPE": "U", "NORAD_CAT_ID": 35647, "ELEMENT_SET_NO": 999, "REV_AT_EPOCH": 67569, "BSTAR": 0.0014529978, "MEAN_MOTION_DOT": 4.961e-05, "MEAN_MOTION_DDOT": 0}, "tle": {"line1": "1 35647U 93036ANN 25340.17992350  .00004961  00000+0  14530-2 0  9990", "line2": "2 35647  74.0229 306.7667 0045144  47.5691 312.9270 14.43573880675696"}}, "geometry": {"type": "Point", "coordinates": [120.23814063554447, -7.090426656158878]}}]}